SKYSAT-C4               
1 41771U 16058B   26177.31326862  .00018530  00000+0  34534-3 0  9992
2 41771  96.9173 198.7035 0002047 140.2320 219.9082 15.48863181546882
SKYSAT-C5               
1 41772U 16058C   26177.68967433  .00007468  00000+0  22498-3 0  9992
2 41772  97.0469 217.9060 0001210 220.2430 139.8725 15.34598255545208
SKYSAT-C2               
1 41773U 16058D   26177.01908789  .00013945  00000+0  32596-3 0  9996
2 41773  97.0169 198.7820 0003924  51.2857 308.8741 15.42261578546419
SKYSAT-C3               
1 41774U 16058E   26176.58591494  .00026959  00000+0  43484-3 0  9996
2 41774  96.9009 207.1097 0001258 117.9292 242.2090 15.52881901547411
ALSAT-1B                
1 41785U 16059C   26177.75503582  .00000420  00000+0  73871-4 0  9999
2 41785  97.7752 186.1058 0008843 186.3587 173.7510 14.72281550521988
PATHFINDER 1            
1 41787U 16059E   26177.47673799  .00000541  00000+0  10274-3 0  9999
2 41787  97.8167 176.3338 0028580 173.6839 186.4732 14.67672610521074
SCATSAT 1               
1 41790U 16059H   26177.68147019  .00001100  00000+0  15096-3 0  9996
2 41790  98.1188 241.5456 0053835 216.2788 143.4769 14.79544640102992
GOKTURK 1A              
1 41875U 16073A   26177.68547038  .00000391  00000+0  85767-4 0  9995
2 41875  98.1245  72.2107 0001419  78.4155 281.7206 14.62780882510211
RESOURCESAT-2A          
1 41877U 16074A   26177.71313797  .00000149  00000+0  87902-4 0  9999
2 41877  98.7527 251.1399 0003226  65.3724 294.7789 14.21619347495650
CARTOSAT-2D             
1 41948U 17008A   26177.70878608  .00006650  00000+0  31834-3 0  9997
2 41948  97.4105 236.8371 0004636 195.6503 164.4590 15.19278606519023
SENTINEL-2B             
1 42063U 17013A   26177.71797654  .00000287  00000+0  12603-3 0  9997
2 42063  98.5692 252.3582 0001196  87.2239 272.9080 14.30820218486006
CARTOSAT-2E             
1 42767U 17036C   26177.72646619  .00004239  00000+0  20444-3 0  9991
2 42767  97.4275 237.3721 0002207 275.2056  84.8927 15.19235149499599
FORMOSAT-5              
1 42920U 17049A   26177.70775567  .00000130  00000+0  43993-4 0  9990
2 42920  98.2253 252.8060 0012443  57.8983 302.3418 14.50901919468058
SENTINEL-5P             
1 42969U 17064A   26177.71748628  .00000030  00000+0  35273-4 0  9990
2 42969  98.7925 119.7811 0001035  90.3309 269.7985 14.19520411450916
SKYSAT-C11              
1 42987U 17068A   26177.36961519  .00029711  00000+0  39203-3 0  9994
2 42987  97.4351 326.6033 0000448 123.0014 237.1285 15.58354421484676
SKYSAT-C10              
1 42988U 17068B   26177.68131257  .00008987  00000+0  26884-3 0  9991
2 42988  97.4509 314.6220 0001166 105.1897 254.9475 15.34789181483817
SKYSAT-C9               
1 42989U 17068C   26177.65049690  .00013182  00000+0  31290-3 0  9998
2 42989  97.4430 315.6165 0009559 103.5554 256.6758 15.41785095484212
SKYSAT-C8               
1 42990U 17068D   26177.63817191  .00010318  00000+0  28591-3 0  9995
2 42990  97.4527 314.4144 0001351  94.8903 265.2496 15.37151628483765
SKYSAT-C7               
1 42991U 17068E   26177.63208750  .00010317  00000+0  28611-3 0  9993
2 42991  97.4535 315.3982 0007064  79.1709 281.0330 15.37103897483827
SKYSAT-C6               
1 42992U 17068F   26177.34329537  .00010269  00000+0  31332-3 0  9999
2 42992  97.4571 315.0399 0005173 125.8048 234.3676 15.34113077483722
CARTOSAT-2F             
1 43111U 18004A   26177.69288510  .00006930  00000+0  33161-3 0  9999
2 43111  97.4791 237.2350 0001597 168.7744 191.3526 15.19289767468774
GAOFEN-1 02             
1 43259U 18031A   26177.71872707  .00000696  00000+0  10751-3 0  9995
2 43259  98.0527 240.2192 0002969   7.1094 353.0157 14.76420340444101
GAOFEN-1 03             
1 43260U 18031B   26177.76453515  .00000109  00000+0  23027-4 0  9994
2 43260  98.0515 240.1223 0003614  59.8428 300.3139 14.76437111444106
GAOFEN-1 04             
1 43262U 18031D   26177.74034321  .00001207  00000+0  18089-3 0  9995
2 43262  98.0528 240.2900 0002025  65.4233 294.7188 14.76447956444093
SENTINEL-3B             
1 43437U 18039A   26177.72737676  .00000092  00000+0  55871-4 0  9990
2 43437  98.6246 245.1228 0000756 107.4193 252.7070 14.26737250425488
GAOFEN-5 01             
1 43461U 18043A   26177.65242753  .00000322  00000+0  76310-4 0  9998
2 43461  98.4574 149.4376 0002905  67.0405 293.1101 14.60611596433072
GAOFEN-6                
1 43484U 18048A   26176.81301529  .00000286  00000+0  48573-4 0  9991
2 43484  98.0567 239.4730 0011702 138.2343 221.9762 14.76423510434668
GAOFEN-11 01            
1 43585U 18063A   26177.75915907  .00018102  00000+0  26576-3 0  9999
2 43585  97.1291 244.6124 0002240 310.9177  49.1884 15.55558132441839
ICESAT-2                
1 43613U 18070A   26177.58382569  .00010066  00000+0  36633-3 0  9998
2 43613  92.0082 293.5176 0006238  98.1260 262.0697 15.28186647433895
HYSIS                   
1 43719U 18096A   26177.68544881  .00001753  00000+0  24645-3 0  9994
2 43719  97.9840 244.3593 0001838  92.3721 267.7700 14.78636493408829
KAZSTSAT                
1 43783U 18099AB  26177.57086376  .00001877  00000+0  15579-3 0  9999
2 43783  97.4287 209.0735 0008579  44.0875 316.1032 14.99897375412710
